EUTELSAT 8 WEST B       
1 40875U 15039B   25339.92578459 -.00000056  00000+0  00000+0 0  9993
2 40875   0.0647 352.8633 0004115 264.0555 143.3492  1.00271570 37718
EUTELSAT 9B             
1 41310U 16005A   25339.92916462  .00000071  00000+0  00000+0 0  9998
2 41310   0.0726  75.7145 0005024 191.2800 151.4745  1.00272160 36170
EUTELSAT 65 WEST A      
1 41382U 16014A   25339.91443120 -.00000267  00000+0  00000+0 0  9990
2 41382   0.0495 352.8072 0002874 270.9209  75.2231  1.00269793 35594
EUTELSAT 117 WEST B     
1 41589U 16038B   25339.69024309 -.00000001  00000+0  00000+0 0  9990
2 41589   0.0079 160.8925 0000390 335.2257  70.1092  1.00266571 34728
EUTELSAT 172B           
1 42741U 17029B   25339.89007773  .00000004  00000+0  00000+0 0  9992
2 42741   0.0102  82.7669 0000156 152.6810 331.9231  1.00271098 31796
EUTELSAT 7C             
1 44334U 19034B   25339.92873128  .00000057  00000+0  00000+0 0  9997
2 44334   0.0752 179.1841 0003470  60.4272 176.6899  1.00269873  4893
EUTELSAT 5 WEST B       
1 44624U 19067A   25339.92639126 -.00000033  00000+0  00000+0 0  9998
2 44624   0.0675 333.8553 0003599 281.7086 147.9161  1.00270341 22492
EUTELSAT KONNECT        
1 45027U 20005B   25339.92881795  .00000058  00000+0  00000+0 0  9997
2 45027   0.0712  98.3329 0001855 187.6480 130.5550  1.00267987 22381
